satname,norad_id,inclination_deg,eccentricity,mean_motion_rev_per_day,perigee_km,apogee_km,l1,l2
STARLINK-1482,45773,53.0554,0.0001242,15.06393996,546.369828818305,548.0900899710177,1 45773U 20038AV  25365.64683656 -.00001186  00000+0 -60759-4 0  9992,2 45773  53.0554 142.0723 0001242  89.8721 270.2410 15.06393996306504
STARLINK-1496,45780,53.0623,0.0001367,15.36397214,455.83919845467335,457.70786299377323,1 45780U 20038BC  25365.66668981  .00006269  00000+0  18459-3 0  9990,2 45780  53.0623 140.2974 0001367  91.6336 343.2113 15.36397214  5808
STARLINK-1497,45781,53.0318,0.0004942,15.75990478,338.4931376082686,345.1351373125344,1 45781U 20038BD  25365.66668981  .00282226  00000+0  17260-2 0  9998,2 45781  53.0318  62.1729 0004942  15.2623  36.4450 15.75990478  5914
STARLINK-1510,45784,53.0164,0.0007048,16.12064029,236.52185950334388,245.85245883811058,1 45784U 20038BG  25365.96088013  .01040581  68034-3  94281-3 0  9997,2 45784  53.0164  26.8275 0007048  32.9033 327.2439 16.12064029308145
STARLINK-1513,45786,53.0553,0.0001527,15.06394969,546.1694741922656,548.2844803509242,1 45786U 20038BJ  25365.64315651 -.00000933  00000+0 -43772-4 0  9998,2 45786  53.0553 142.0922 0001527  86.6323 273.4841 15.06394969306501
STARLINK-1522,46027,53.0567,0.0001341,15.06388387,546.3184563247933,548.1758443539138,1 46027U 20055A   25365.49111503  .00001467  00000+0  11738-3 0  9996,2 46027  53.0567  72.7730 0001341  98.1270 261.9871 15.06388387298607
STARLINK-1523,46028,53.0564,0.000134,15.06386159,546.3259765434386,548.1819813257935,1 46028U 20055B   25365.57221470 -.00001784  00000+0 -10095-3 0  9990,2 46028  53.0564  72.4099 0001340  80.7981 279.3159 15.06386159298635
STARLINK-1526,46029,53.0559,0.000118,15.06391784,546.4195448082146,548.0539330105967,1 46029U 20055C   25365.63117147  .00007865  00000+0  54641-3 0  9992,2 46029  53.0559  72.1432 0001180  99.3162 260.7961 15.06391784298632
STARLINK-1555,46032,53.0567,0.0001057,15.0639203,546.5039730235767,547.9679968725941,1 46032U 20055F   25365.61643503  .00006817  00000+0  47616-3 0  9994,2 46032  53.0567  72.2104 0001057  71.5946 288.5158 15.06392030298638
STARLINK-1556,46033,53.0584,0.0001472,15.06394627,546.2086117266226,548.2474391901178,1 46033U 20055G   25365.46530971  .00003763  00000+0  27144-3 0  9993,2 46033  53.0584  72.8872 0001472  97.7158 262.3998 15.06394627298582
STARLINK-1557,46034,53.056,0.000123,15.06390597,546.388555511543,548.0921983462677,1 46034U 20055H   25365.60169582  .00000155  00000+0  29317-4 0  9993,2 46034  53.0560  72.2754 0001230  90.5469 269.5661 15.06390597298609
STARLINK-1558,46035,53.0558,0.0001317,15.06395756,546.3124950994288,548.136635335708,1 46035U 20055J   25365.60905779  .00001842  00000+0  14252-3 0  9995,2 46035  53.0558  72.2457 0001317  65.8369 294.2758 15.06395756298634
STARLINK-1560,46036,53.0548,0.0001387,15.06387373,546.2897069322789,548.210809357689,1 46036U 20055K   25365.59431928  .00004614  00000+0  32853-3 0  9991,2 46036  53.0548  72.3135 0001387  78.3036 281.8108 15.06387373298632
STARLINK-1567,46038,53.0551,0.0001411,15.06383614,546.2846053557641,548.2389528912336,1 46038U 20055M   25365.60537544  .00021235  00000+0  14408-2 0  9999,2 46038  53.0551  72.2614 0001411  86.5520 273.5631 15.06383614298628
STARLINK-1569,46039,53.0547,9.63e-05,15.06387937,546.581614916111,547.9154441691007,1 46039U 20055N   25365.61274615  .00018139  00000+0  12339-2 0  9998,2 46039  53.0547  72.2292 0000963 107.7638 252.3456 15.06387937298625
STARLINK-1582,46043,53.0557,0.0001415,15.06387078,546.2712198653117,548.2311047152398,1 46043U 20055S   25365.62012113  .00001702  00000+0  13316-3 0  9992,2 46043  53.0557  72.1925 0001415  88.5724 271.5427 15.06387078298625
STARLINK-1591,46045,53.0559,0.000161,15.06392381,546.1199242969842,548.3498940517384,1 46045U 20055U   25365.57957888  .00020660  00000+0  14021-2 0  9992,2 46045  53.0559  72.3771 0001610  64.7969 295.3187 15.06392381298602
STARLINK-1524,46047,53.0556,0.0001503,15.06397236,546.1791480516513,548.2609103746327,1 46047U 20055W   25365.59893104  .00005168  00000+0  36558-3 0  9992,2 46047  53.0556  62.2887 0001503  80.4656 279.6503 15.06397236298764
STARLINK-1527,46048,53.0561,0.000132,15.06395017,546.3126821321121,548.1409781832745,1 46048U 20055X   25365.39619174  .00002535  00000+0  18905-3 0  9995,2 46048  53.0561  63.1997 0001320  85.5614 274.5526 15.06395017298719
STARLINK-1540,46051,53.055,0.0001238,15.06391189,546.3812010212459,548.0959240105249,1 46051U 20055AA  25365.56206726  .00004687  00000+0  33340-3 0  9993,2 46051  53.0550  62.4543 0001238  76.8495 283.2632 15.06391189298775
STARLINK-1541,46052,53.0557,0.0001044,15.06348434,546.646581920334,548.0926276994178,1 46052U 20055AB  25365.54734416 -.00008733  00000+0 -56893-3 0  9990,2 46052  53.0557  62.5191 0001044  95.5355 264.5753 15.06348434298738
STARLINK-1543,46053,53.0561,0.0001309,15.06390773,546.3333056806641,548.1463693367241,1 46053U 20055AC  25365.55102089  .00003070  00000+0  22494-3 0  9994,2 46053  53.0561  62.5058 0001309 103.5861 256.5274 15.06390773298767
STARLINK-1548,46054,53.0542,0.0001207,15.06397342,546.3838137832199,548.0555948916481,1 46054U 20055AD  25365.42569165  .00001653  00000+0  12984-3 0  9991,2 46054  53.0542  63.0655 0001207  70.8913 289.2206 15.06397342298742
STARLINK-1554,46055,53.0571,0.0001404,15.06438149,546.1223366930253,548.0669417373183,1 46055U 20055AE  25365.54361594  .00015653  00000+0  10663-2 0  9997,2 46055  53.0571  62.5396 0001404 103.9029 256.2116 15.06438149298763
STARLINK-1564,46058,53.0558,0.0001369,15.06385493,546.3079338562447,548.2041064651648,1 46058U 20055AH  25365.55475369  .00000472  00000+0  50618-4 0  9996,2 46058  53.0558  62.9494 0001369 105.8388 254.2752 15.06385493298759
STARLINK-1570,46059,53.0552,0.0001294,15.06391889,546.3402737764491,548.1325604167941,1 46059U 20055AJ  25365.58417752  .00000948  00000+0  82564-4 0  9995,2 46059  53.0552  62.3586 0001294  78.5467 281.5668 15.06391889298723
STARLINK-1572,46060,53.0555,8.02e-05,15.06400307,546.6552041487676,547.7660299065383,1 46060U 20055AK  25365.58049083  .00010593  00000+0  72896-3 0  9998,2 46060  53.0555  62.3724 0000802  62.2134 297.8937 15.06400307298733
STARLINK-1573,46061,53.0562,0.0001371,15.06389316,546.2948332763854,548.1937728296816,1 46061U 20055AL  25365.57682067  .00000927  00000+0  81155-4 0  9992,2 46061  53.0562  62.4247 0001371  92.7070 267.4076 15.06389316298768
